[{"OBJECT_NAME":"MESON-1","OBJECT_ID":"2024-043AK","EPOCH":"2026-03-09T21:36:16.481664","MEAN_MOTION":15.29893494,"ECCENTRICITY":0.00095452,"INCLINATION":97.5469,"RA_OF_ASC_NODE":205.2839,"ARG_OF_PERICENTER":227.1432,"MEAN_ANOMALY":132.9007,"EPHEMERIS_TYPE":0,"CLASSIFICATION_TYPE":"U","NORAD_CAT_ID":59131,"ELEMENT_SET_NO":999,"REV_AT_EPOCH":11189,"BSTAR":0.0002974823,"MEAN_MOTION_DOT":8.544e-5,"MEAN_MOTION_DDOT":0},{"OBJECT_NAME":"STARLINK-32893","OBJECT_ID":"2025-024U","EPOCH":"2026-03-09T03:00:34.204896","MEAN_MOTION":15.27622987,"ECCENTRICITY":0.00032194,"INCLINATION":43,"RA_OF_ASC_NODE":328.2049,"ARG_OF_PERICENTER":247.3227,"MEAN_ANOMALY":112.7284,"EPHEMERIS_TYPE":0,"CLASSIFICATION_TYPE":"U","NORAD_CAT_ID":62897,"ELEMENT_SET_NO":999,"REV_AT_EPOCH":6218,"BSTAR":0.0015195816,"MEAN_MOTION_DOT":0.0004185,"MEAN_MOTION_DDOT":0}]
